[{"OBJECT_NAME":"SKYSAT-C2","OBJECT_ID":"2016-058D","EPOCH":"2026-03-09T13:52:47.480448","MEAN_MOTION":15.39697823,"ECCENTRICITY":0.0005041,"INCLINATION":97.0282,"RA_OF_ASC_NODE":94.533,"ARG_OF_PERICENTER":68.4779,"MEAN_ANOMALY":291.7005,"EPHEMERIS_TYPE":0,"CLASSIFICATION_TYPE":"U","NORAD_CAT_ID":41773,"ELEMENT_SET_NO":999,"REV_AT_EPOCH":52971,"BSTAR":0.00035386,"MEAN_MOTION_DOT":0.00013915,"MEAN_MOTION_DDOT":0},{"OBJECT_NAME":"STARLINK-32955","OBJECT_ID":"2025-039P","EPOCH":"2026-03-09T22:00:01.999584","MEAN_MOTION":15.35643396,"ECCENTRICITY":0.00092359,"INCLINATION":43.0013,"RA_OF_ASC_NODE":10.1549,"ARG_OF_PERICENTER":201.6454,"MEAN_ANOMALY":283.0913,"EPHEMERIS_TYPE":0,"CLASSIFICATION_TYPE":"U","NORAD_CAT_ID":63117,"ELEMENT_SET_NO":999,"REV_AT_EPOCH":575,"BSTAR":0.0033239594,"MEAN_MOTION_DOT":0.00119453,"MEAN_MOTION_DDOT":0}]
